{"type":"FeatureCollection","features":[{"type":"Feature","geometry":{"type":"Polygon","coordinates":[[[107.40464,14.3],[107.40304,14.30354],[107.39875,14.30549],[107.39508,14.30971],[107.39154,14.3147],[107.3889,14.31971],[107.38877,14.32594],[107.38937,14.32822],[107.39136,14.32841],[107.39466,14.33086],[107.39867,14.33489],[107.39962,14.34076],[107.40439,14.34587],[107.40682,14.34986],[107.40846,14.35527],[107.40872,14.35892],[107.40986,14.36239],[107.41424,14.36416],[107.41826,14.36833],[107.42012,14.37219],[107.42314,14.37549],[107.43159,14.38204],[107.43052,14.38902],[107.42697,14.39768],[107.42227,14.40139],[107.42213,14.40369],[107.42431,14.41142],[107.42612,14.41399],[107.43075,14.41698],[107.43678,14.42165],[107.44354,14.42609],[107.4466,14.42714],[107.45417,14.42165],[107.4549,14.42048],[107.45495,14.41563],[107.45628,14.41076],[107.45813,14.40753],[107.46474,14.4057],[107.46732,14.40636],[107.469,14.4082],[107.47412,14.40759],[107.4757,14.40595],[107.47912,14.40456],[107.48244,14.40478],[107.48702,14.40885],[107.48804,14.41402],[107.48785,14.43034],[107.4906,14.43483],[107.49247,14.43612],[107.4947,14.4398],[107.4965,14.44383],[107.5007,14.45718],[107.50081,14.4619],[107.49773,14.46541],[107.49781,14.46732],[107.50047,14.47033],[107.50224,14.48092],[107.50412,14.48889],[107.50983,14.49863],[107.50878,14.5039],[107.50543,14.50935],[107.5059,14.5107],[107.5086,14.51217],[107.5114,14.51281],[107.51647,14.51615],[107.51968,14.52133],[107.52091,14.52647],[107.52152,14.53216],[107.52475,14.53716],[107.52489,14.54366],[107.52985,14.55439],[107.53003,14.55723],[107.52809,14.55947],[107.52307,14.56259],[107.52126,14.56643],[107.52118,14.57079],[107.5218,14.57536],[107.51989,14.58175],[107.51454,14.58634],[107.51589,14.58817],[107.52029,14.59176],[107.52021,14.59354],[107.52285,14.59911],[107.53103,14.60015],[107.53367,14.60144],[107.54057,14.60786],[107.54259,14.61145],[107.54171,14.61724],[107.53842,14.62054],[107.53748,14.63223],[107.54103,14.6399],[107.54469,14.64573],[107.54669,14.64612],[107.54961,14.64814],[107.54985,14.65105],[107.54753,14.65475],[107.54631,14.65977],[107.54911,14.66396],[107.5513,14.66503],[107.55115,14.66973],[107.54864,14.67174],[107.54784,14.67692],[107.5486,14.68052],[107.55382,14.68492],[107.55607,14.68935],[107.5578,14.695],[107.55759,14.70271],[107.55705,14.70672],[107.55396,14.71071],[107.55359,14.71343],[107.55505,14.71935],[107.55446,14.72227],[107.55175,14.72256],[107.54664,14.72193],[107.53944,14.72327],[107.53324,14.72559],[107.52872,14.72427],[107.52423,14.72402],[107.52139,14.72447],[107.52079,14.72707],[107.52111,14.73086],[107.52407,14.73516],[107.53053,14.73767],[107.53555,14.74169],[107.53975,14.75194],[107.5372,14.75478],[107.53198,14.76191],[107.53086,14.76613],[107.52874,14.77026],[107.52504,14.77551],[107.52331,14.77723],[107.52023,14.77756],[107.51509,14.78084],[107.51346,14.78609],[107.51218,14.78631],[107.50725,14.78489],[107.50371,14.78646],[107.50676,14.79424],[107.50927,14.7976],[107.51641,14.80308],[107.52066,14.80447],[107.52223,14.80756],[107.52045,14.81259],[107.52123,14.81488],[107.52371,14.81507],[107.52991,14.81707],[107.53599,14.81957],[107.53899,14.822],[107.53903,14.82689],[107.53961,14.82824],[107.54425,14.83192],[107.54878,14.83423],[107.55212,14.83484],[107.559,14.83924],[107.56395,14.84517],[107.56455,14.85014],[107.56933,14.854],[107.57278,14.85526],[107.57824,14.85846],[107.58846,14.86632],[107.58871,14.86845],[107.58812,14.87554],[107.58569,14.87883],[107.58361,14.8876],[107.58403,14.89181],[107.58098,14.89399],[107.57469,14.89428],[107.57214,14.89262],[107.569,14.8947],[107.56677,14.89827],[107.55944,14.90382],[107.55127,14.90295],[107.54544,14.90538],[107.538,14.90939],[107.53709,14.91023],[107.53288,14.91673],[107.52913,14.91971],[107.52792,14.92275],[107.5284,14.92704],[107.52807,14.92928],[107.52441,14.93032],[107.51475,14.9318],[107.5094,14.93057],[107.50342,14.93155],[107.49981,14.93617],[107.49655,14.94387],[107.48923,14.94467],[107.48104,14.95282],[107.47691,14.95818],[107.47644,14.9615],[107.47875,14.96691],[107.47976,14.97126],[107.47921,14.97306],[107.4764,14.97515],[107.47418,14.97564],[107.47112,14.97917],[107.46761,14.98481],[107.46741,14.98795],[107.47451,14.98817],[107.47624,14.9927],[107.4735,14.99427],[107.46816,14.99939],[107.46659,15.00632],[107.46783,15.0136],[107.471,15.02011],[107.47277,15.02139],[107.4794,15.02367],[107.48888,15.02478],[107.49096,15.02432],[107.49401,15.02101],[107.49879,15.02262],[107.50742,15.02782],[107.51299,15.03084],[107.51676,15.03551],[107.51783,15.03794],[107.51997,15.03962],[107.52741,15.04175],[107.53173,15.04491],[107.53781,15.05047],[107.54234,15.04957],[107.5498,15.04631],[107.55412,15.04403],[107.55899,15.04026],[107.56163,15.03727],[107.56531,15.03564],[107.56768,15.03692],[107.57027,15.03587],[107.57338,15.03354],[107.57496,15.03076],[107.5777,15.02949],[107.58549,15.02987],[107.5864,15.03162],[107.58589,15.0365],[107.58832,15.04107],[107.59215,15.0465],[107.59113,15.04991],[107.59525,15.05135],[107.60169,15.04889],[107.61247,15.04667],[107.61391,15.04684],[107.61896,15.05189],[107.61836,15.05479],[107.6136,15.0639],[107.61061,15.06766],[107.60722,15.0704],[107.60208,15.07791],[107.59843,15.08566],[107.59676,15.09012],[107.60688,15.09859],[107.60885,15.10073],[107.61534,15.10539],[107.61983,15.10542],[107.62091,15.10621],[107.62113,15.11034],[107.62041,15.11272],[107.61749,15.11863],[107.61215,15.12449],[107.60899,15.12675],[107.60665,15.13056],[107.60614,15.134],[107.61149,15.13312],[107.61524,15.13361],[107.61994,15.13579],[107.62215,15.13836],[107.62371,15.14199],[107.62136,15.14452],[107.62177,15.14767],[107.62451,15.14976],[107.62413,15.15118],[107.6216,15.1527],[107.61897,15.15302],[107.61458,15.15706],[107.61123,15.16466],[107.60986,15.16897],[107.60156,15.18246],[107.59847,15.18658],[107.59455,15.19104],[107.58645,15.19754],[107.58182,15.19718],[107.58238,15.20201],[107.58789,15.20394],[107.59217,15.2073],[107.59115,15.20899],[107.59139,15.2111],[107.59304,15.21219],[107.59656,15.21003],[107.59777,15.20693],[107.60051,15.2054],[107.60191,15.20623],[107.60927,15.2123],[107.61371,15.21404],[107.61603,15.21434],[107.61821,15.21302],[107.62004,15.21569],[107.61987,15.21791],[107.6173,15.22051],[107.61728,15.22437],[107.61853,15.22732],[107.62044,15.22702],[107.62501,15.22777],[107.62925,15.22932],[107.63171,15.23188],[107.62934,15.23264],[107.62566,15.23166],[107.62295,15.2332],[107.62198,15.23688],[107.62173,15.24147],[107.61763,15.24672],[107.61792,15.25755],[107.6187,15.26367],[107.61829,15.26771],[107.61455,15.27654],[107.61416,15.28501],[107.61364,15.2895],[107.61499,15.2924],[107.6176,15.29537],[107.6224,15.31135],[107.6284,15.31144],[107.632,15.31433],[107.63267,15.32057],[107.62721,15.32698],[107.62498,15.33213],[107.61564,15.33159],[107.60931,15.33527],[107.60826,15.33627],[107.60648,15.34324],[107.60327,15.35199],[107.60353,15.36162],[107.60402,15.36384],[107.60712,15.36789],[107.60444,15.37175],[107.60003,15.37684],[107.59864,15.37706],[107.59637,15.37946],[107.59497,15.38283],[107.59606,15.38517],[107.60033,15.38817],[107.60512,15.39252],[107.61114,15.39453],[107.61217,15.39787],[107.61309,15.40392],[107.62216,15.4141],[107.61788,15.41851],[107.60815,15.41954],[107.60664,15.42166],[107.60153,15.42239],[107.60018,15.42035],[107.5995,15.41728],[107.59804,15.41573],[107.59436,15.41431],[107.58764,15.41381],[107.57106,15.39897],[107.56343,15.39585],[107.55934,15.39552],[107.55398,15.39827],[107.54904,15.40136],[107.54621,15.40449],[107.53811,15.40648],[107.52981,15.40638],[107.5286,15.40686],[107.51672,15.41715],[107.51647,15.41954],[107.51736,15.42353],[107.51878,15.42693],[107.52454,15.43802],[107.52504,15.4426],[107.52157,15.44642],[107.52047,15.44957],[107.52065,15.45462],[107.51825,15.46044],[107.51433,15.46565],[107.51206,15.47349],[107.51049,15.47472],[107.50095,15.4764],[107.49288,15.47973],[107.48918,15.48009],[107.4835,15.47947],[107.47897,15.47834],[107.47571,15.47966],[107.47582,15.48267],[107.47971,15.48433],[107.48037,15.48932],[107.47884,15.49272],[107.4717,15.49671],[107.46376,15.50026],[107.45639,15.50207],[107.45266,15.50434],[107.44882,15.50478],[107.44582,15.50407],[107.43561,15.50446],[107.43184,15.50392],[107.42998,15.50288],[107.42824,15.5002],[107.42965,15.49764],[107.43007,15.49308],[107.42805,15.49124],[107.42397,15.49183],[107.41092,15.49496],[107.40529,15.49512],[107.39807,15.4936],[107.39397,15.49503],[107.38655,15.49579],[107.3829,15.49415],[107.37986,15.49478],[107.3779,15.5041],[107.37841,15.51045],[107.37516,15.52028],[107.37295,15.52264],[107.3723,15.52612],[107.37308,15.52891],[107.37249,15.53259],[107.37039,15.53886],[107.36817,15.54249],[107.36663,15.5431],[107.36388,15.54777],[107.36161,15.55743],[107.36327,15.5604],[107.36308,15.57003],[107.35819,15.57323],[107.35618,15.57197],[107.35011,15.57148],[107.34489,15.5742],[107.34093,15.57877],[107.34398,15.58518],[107.34779,15.58799],[107.35113,15.58923],[107.35169,15.59266],[107.34874,15.60013],[107.34628,15.6031],[107.34332,15.60408],[107.34052,15.60692],[107.34114,15.60985],[107.34069,15.61496],[107.33577,15.61959],[107.33392,15.6225],[107.3291,15.6242],[107.3185,15.62609],[107.31299,15.62668],[107.30357,15.62593],[107.29045,15.6243],[107.28369,15.6273],[107.27373,15.63623],[107.27356,15.64401],[107.27528,15.64853],[107.27332,15.65431],[107.26526,15.65486],[107.26307,15.65594],[107.26326,15.66387],[107.26566,15.66926],[107.27276,15.67942],[107.27467,15.68456],[107.27182,15.68673],[107.2715,15.68956],[107.27337,15.69407],[107.27457,15.70081],[107.27152,15.70857],[107.26909,15.70862],[107.26397,15.71286],[107.26499,15.71914],[107.26278,15.72139],[107.25005,15.72319],[107.24749,15.72683],[107.24874,15.73322],[107.25174,15.73612],[107.2523,15.73975],[107.24805,15.74478],[107.24599,15.746],[107.24127,15.74631],[107.23339,15.74475],[107.22449,15.74385],[107.21954,15.74255],[107.21635,15.74054],[107.21241,15.74037],[107.20991,15.74957],[107.20921,15.75557],[107.20992,15.75856],[107.21502,15.76074],[107.21606,15.76469],[107.21624,15.76834],[107.21775,15.7783],[107.22093,15.78177],[107.2237,15.78381],[107.22565,15.78434],[107.22734,15.78651],[107.22543,15.79275],[107.22382,15.80177],[107.22467,15.80257],[107.22421,15.80681],[107.21875,15.81574],[107.21418,15.82387],[107.21276,15.82518],[107.20941,15.82624],[107.20883,15.82783],[107.21285,15.82999],[107.21522,15.83019],[107.21952,15.83223],[107.22246,15.83694],[107.22454,15.8372],[107.22839,15.83941],[107.23047,15.84152],[107.23166,15.84465],[107.23322,15.84467],[107.23919,15.84177],[107.24578,15.83953],[107.24819,15.84088],[107.24903,15.84273],[107.25405,15.84818],[107.25916,15.8512],[107.26226,15.85097],[107.26775,15.85215],[107.26978,15.85494],[107.26958,15.85881],[107.2706,15.86061],[107.27379,15.86259],[107.27529,15.86187],[107.2763,15.85922],[107.2812,15.85877],[107.28579,15.8618],[107.28708,15.86391],[107.28978,15.86636],[107.29727,15.86994],[107.30113,15.86734],[107.30774,15.87148],[107.30969,15.87406],[107.31401,15.88339],[107.3181,15.88652],[107.32453,15.88977],[107.33353,15.89015],[107.33905,15.89161],[107.34544,15.89453],[107.34873,15.89456],[107.36,15.89262],[107.36291,15.89389],[107.36269,15.89688],[107.36898,15.8989],[107.37281,15.89647],[107.37844,15.89003],[107.38279,15.8883],[107.38587,15.89077],[107.39067,15.89364],[107.39725,15.89533],[107.40296,15.90149],[107.40533,15.90553],[107.40754,15.91095],[107.40861,15.91181],[107.41348,15.91318],[107.41439,15.91479],[107.41672,15.92386],[107.41963,15.92754],[107.42134,15.92753],[107.42578,15.93098],[107.42696,15.93429],[107.42652,15.93993],[107.428,15.94275],[107.42949,15.94805],[107.43115,15.95636],[107.4331,15.96182],[107.43699,15.96748],[107.44034,15.97524],[107.44232,15.97894],[107.44403,15.98084],[107.44284,15.98777],[107.44478,15.99112],[107.44842,15.99188],[107.45074,15.99489],[107.45353,16],[107.45434,16.00663],[107.46166,16.01561],[107.46587,16.02638],[107.46296,16.02854],[107.45987,16.02927],[107.45612,16.03308],[107.4554,16.03454],[107.45203,16.03796],[107.44809,16.03869],[107.44528,16.04259],[107.44465,16.05533],[107.44923,16.0639],[107.4511,16.06581],[107.45867,16.07221],[107.45943,16.07408],[107.45573,16.08274],[107.45478,16.08429],[107.45012,16.08935],[107.44771,16.09079],[107.44469,16.09107],[107.44421,16.08737],[107.44163,16.08391],[107.43761,16.08323],[107.42972,16.08004],[107.42486,16.07909],[107.41984,16.07935],[107.41533,16.0829],[107.41095,16.08528],[107.40738,16.08514],[107.4052,16.08332],[107.40171,16.07894],[107.39928,16.06548],[107.39442,16.06401],[107.38868,16.06368],[107.38418,16.06714],[107.37793,16.07336],[107.3755,16.07433],[107.37214,16.07222],[107.36979,16.06702],[107.36821,16.06455],[107.36373,16.06201],[107.36117,16.06215],[107.35305,16.06367],[107.3472,16.0634],[107.3422,16.06088],[107.34097,16.05875],[107.33716,16.05641],[107.33242,16.05606],[107.32815,16.06118],[107.32756,16.06577],[107.32271,16.07105],[107.31796,16.07096],[107.31335,16.0747],[107.30887,16.07978],[107.30226,16.08897],[107.29746,16.09681],[107.29221,16.10359],[107.28924,16.11065],[107.28328,16.11724],[107.27943,16.1185],[107.27602,16.11711],[107.27,16.11749],[107.26646,16.12179],[107.26446,16.1267],[107.26162,16.13703],[107.26024,16.13815],[107.25206,16.13737],[107.24822,16.14018],[107.24568,16.14338],[107.245,16.1465],[107.24224,16.14824],[107.23721,16.14804],[107.23386,16.14704],[107.22641,16.14386],[107.2213,16.14011],[107.21034,16.14415],[107.20478,16.1469],[107.19799,16.14508],[107.19309,16.14564],[107.18345,16.15316],[107.17992,16.1549],[107.17383,16.15952],[107.17149,16.16387],[107.16738,16.16713],[107.16473,16.1671],[107.15786,16.16991],[107.15643,16.17174],[107.1543,16.18237],[107.15168,16.18623],[107.14734,16.19062],[107.14709,16.20191],[107.14585,16.20848],[107.14265,16.21524],[107.14424,16.22036],[107.14562,16.22283],[107.14973,16.2266],[107.15308,16.2314],[107.15341,16.23361],[107.1499,16.23591],[107.14929,16.24099],[107.15161,16.24337],[107.15266,16.24721],[107.15362,16.2587],[107.14937,16.26421],[107.14553,16.27015],[107.14564,16.27074],[107.0938,16.3067],[107.08593,16.31237],[107.08196,16.31345],[107.08042,16.31129],[107.07709,16.31019],[107.07462,16.30816],[107.07168,16.30378],[107.06637,16.30482],[107.0644,16.30445],[107.06007,16.30506],[107.05599,16.30632],[107.05187,16.30659],[107.04804,16.30002],[107.04672,16.29952],[107.04302,16.30099],[107.03671,16.30565],[107.03063,16.30868],[107.02803,16.31134],[107.02486,16.30983],[107.02365,16.30648],[107.02061,16.30283],[107.01517,16.30314],[107.01576,16.308],[107.01196,16.31077],[107.00738,16.31337],[107.00516,16.31334],[107.00054,16.31199],[106.99537,16.30767],[106.99106,16.3089],[106.98891,16.30797],[106.98778,16.3063],[106.98547,16.30613],[106.98251,16.30446],[106.97748,16.30387],[106.97081,16.30183],[106.96928,16.30205],[106.96865,16.30432],[106.96654,16.30532],[106.96769,16.30971],[106.9666,16.31119],[106.96594,16.31454],[106.96626,16.31725],[106.9653,16.31937],[106.96727,16.32294],[106.96596,16.32625],[106.96781,16.33655],[106.9655,16.33752],[106.967,16.34102],[106.96669,16.34231],[106.9674,16.34761],[106.96642,16.35069],[106.96347,16.35603],[106.96334,16.35848],[106.95795,16.35806],[106.95264,16.35845],[106.94705,16.36146],[106.94373,16.36222],[106.94296,16.3634],[106.93838,16.36546],[106.93503,16.36523],[106.93162,16.36584],[106.92806,16.37038],[106.92265,16.37023],[106.92014,16.37284],[106.91809,16.37366],[106.9132,16.38119],[106.90751,16.38344],[106.90717,16.38521],[106.90444,16.38669],[106.9043,16.38803],[106.89943,16.39014],[106.89761,16.39199],[106.89583,16.40013],[106.89612,16.40182],[106.89137,16.40876],[106.89211,16.41103],[106.89534,16.41258],[106.89531,16.41603],[106.89628,16.42002],[106.89946,16.42243],[106.90005,16.42521],[106.89516,16.42557],[106.89165,16.42667],[106.89052,16.42583],[106.88769,16.42141],[106.88452,16.42196],[106.87753,16.42549],[106.87384,16.4261],[106.87177,16.42884],[106.87166,16.43588],[106.87334,16.4358],[106.87633,16.43915],[106.87923,16.44456],[106.88442,16.44842],[106.8867,16.44882],[106.8886,16.45189],[106.88682,16.45367],[106.88654,16.45624],[106.88513,16.45761],[106.88601,16.46274],[106.88446,16.46777],[106.88089,16.46937],[106.87773,16.46938],[106.87673,16.47126],[106.87662,16.47568],[106.87889,16.47776],[106.87779,16.48209],[106.87904,16.48487],[106.88361,16.48798],[106.88648,16.49086],[106.88603,16.4933],[106.88733,16.49466],[106.887,16.49699],[106.88915,16.50305],[106.8876,16.50411],[106.8873,16.50952],[106.89082,16.51117],[106.88645,16.52196],[106.88318,16.52271],[106.88272,16.52425],[106.87981,16.52434],[106.87763,16.52692],[106.87762,16.52848],[106.87407,16.53295],[106.87014,16.5339],[106.86831,16.53309],[106.86453,16.53631],[106.86173,16.54069],[106.85886,16.5403],[106.85408,16.54308],[106.85058,16.5436],[106.84459,16.54711],[106.84127,16.54796],[106.83462,16.54882],[106.8307,16.54882],[106.82991,16.54619],[106.83059,16.54086],[106.82835,16.53652],[106.82452,16.53299],[106.8227,16.52923],[106.82537,16.52702],[106.8255,16.52545],[106.82804,16.52364],[106.8287,16.52147],[106.82745,16.51976],[106.82579,16.51441],[106.82332,16.51212],[106.82277,16.50841],[106.81917,16.50356],[106.81884,16.5009],[106.81672,16.49484],[106.81522,16.49293],[106.81416,16.48716],[106.8105,16.48196],[106.80675,16.47788],[106.80557,16.47551],[106.80526,16.47062],[106.80211,16.46354],[106.79254,16.4733],[106.78933,16.47368],[106.78587,16.4732],[106.78285,16.47094],[106.77538,16.47006],[106.77096,16.46776],[106.77087,16.46586],[106.77402,16.46316],[106.7754,16.45904],[106.77283,16.45334],[106.77313,16.44745],[106.77511,16.44433],[106.77526,16.44281],[106.77284,16.43851],[106.77212,16.43599],[106.77178,16.43148],[106.76768,16.42876],[106.76426,16.42572],[106.75725,16.42381],[106.74652,16.42416],[106.74531,16.42129],[106.74608,16.41717],[106.74522,16.41573],[106.73997,16.41079],[106.7383,16.41197],[106.7383,16.41708],[106.73596,16.4207],[106.73413,16.42531],[106.73623,16.43664],[106.73518,16.43901],[106.73269,16.43988],[106.72628,16.43673],[106.72408,16.43474],[106.72431,16.43301],[106.72777,16.43132],[106.73003,16.42923],[106.72973,16.42691],[106.72718,16.42511],[106.72581,16.42519],[106.72006,16.43034],[106.71521,16.43318],[106.71053,16.43368],[106.70126,16.43608],[106.69981,16.43752],[106.69543,16.43987],[106.69031,16.43875],[106.68742,16.43931],[106.68637,16.44227],[106.68789,16.44568],[106.6907,16.4465],[106.69283,16.44815],[106.69275,16.45006],[106.68849,16.45442],[106.68499,16.45738],[106.68341,16.45802],[106.67949,16.45298],[106.67776,16.45137],[106.67576,16.45234],[106.67397,16.45842],[106.67346,16.4637],[106.67468,16.47313],[106.67402,16.47557],[106.67177,16.47676],[106.66845,16.476],[106.66249,16.47229],[106.6606,16.47413],[106.66143,16.48203],[106.66406,16.48633],[106.66324,16.48831],[106.65999,16.49109],[106.65955,16.49285],[106.66342,16.49653],[106.66362,16.50118],[106.66527,16.50234],[106.66435,16.50481],[106.66125,16.50571],[106.65477,16.50954],[106.65218,16.51304],[106.65341,16.51734],[106.6527,16.51929],[106.65051,16.51991],[106.6471,16.52205],[106.64775,16.52843],[106.64812,16.53593],[106.64753,16.5405],[106.65215,16.54512],[106.65504,16.54738],[106.65891,16.55293],[106.66392,16.55702],[106.66715,16.55841],[106.67142,16.55901],[106.67256,16.56203],[106.66549,16.56853],[106.66274,16.57158],[106.66198,16.57414],[106.66338,16.57916],[106.66712,16.58305],[106.66722,16.58435],[106.6631,16.58425],[106.65782,16.58138],[106.6552,16.5824],[106.65307,16.58466],[106.651,16.58841],[106.64928,16.59272],[106.64649,16.59412],[106.64375,16.59359],[106.64011,16.59184],[106.6339,16.59151],[106.63142,16.59065],[106.63043,16.58769],[106.63156,16.58443],[106.6307,16.58244],[106.62863,16.58192],[106.62554,16.5847],[106.62447,16.58791],[106.62428,16.59666],[106.62676,16.6011],[106.62579,16.60191],[106.61686,16.60575],[106.60863,16.60711],[106.59773,16.6063],[106.59062,16.6019],[106.58736,16.60083],[106.58491,16.60209],[106.58292,16.6047],[106.58193,16.60734],[106.58197,16.61017],[106.58296,16.61243],[106.58495,16.61421],[106.58939,16.61592],[106.59111,16.61752],[106.58968,16.62399],[106.58783,16.62632],[106.58035,16.63087],[106.57701,16.63224],[106.57671,16.63386],[106.57302,16.6369],[106.5727,16.63795],[106.56943,16.64033],[106.56532,16.64132],[106.56372,16.6459],[106.5669,16.64973],[106.56765,16.65296],[106.56684,16.65454],[106.56676,16.66143],[106.56521,16.66257],[106.56527,16.66578],[106.56124,16.66857],[106.55811,16.67397],[106.55816,16.67691],[106.55683,16.67884],[106.55741,16.6834],[106.55536,16.68587],[106.55449,16.68898],[106.5522,16.69429],[106.55171,16.78824],[106.55159,16.7988],[106.5514,16.83873],[106.55116,16.86784],[106.54747,16.86883],[106.54603,16.87034],[106.5431,16.87084],[106.53889,16.8731],[106.53136,16.88306],[106.52782,16.8858],[106.51865,16.88964],[106.51678,16.897],[106.51895,16.90196],[106.51893,16.90485],[106.51641,16.90668],[106.51644,16.91429],[106.51871,16.91703],[106.51988,16.92013],[106.51944,16.92205],[106.52457,16.92123],[106.52541,16.92266],[106.52356,16.92435],[106.52465,16.92567],[106.52742,16.92535],[106.53131,16.92631],[106.53292,16.92503],[106.53721,16.92425],[106.5424,16.92651],[106.54577,16.92682],[106.54749,16.926],[106.54783,16.93526],[106.55021,17.00772],[106.54814,17.0096],[106.54598,17.00831],[106.54487,17.00317],[106.54336,16.99868],[106.5442,16.99747],[106.54303,16.99488],[106.53807,16.99369],[106.53645,16.99222],[106.53475,16.98909],[106.53313,16.98213],[106.53129,16.97831],[106.52916,16.97853],[106.52532,16.97595],[106.52308,16.9754],[106.51655,16.97187],[106.5143,16.97137],[106.50997,16.97319],[106.50559,16.97355],[106.50331,16.97738],[106.49868,16.97994],[106.49454,16.97787],[106.49141,16.9809],[106.48734,16.983],[106.48072,16.98251],[106.47824,16.98141],[106.4769,16.98361],[106.47142,16.98324],[106.47028,16.98625],[106.46865,16.98584],[106.46579,16.98831],[106.4634,16.98951],[106.46253,16.99221],[106.46274,16.999],[106.46067,17.00075],[106.45702,17.0007],[106.45578,16.99877],[106.45036,16.99799],[106.44725,16.99644],[106.4405,16.99476],[106.43809,16.99605],[106.43356,17.0034],[106.42975,17.00455],[106.42737,17.00632],[106.42818,17.00995],[106.42687,17.01216],[106.42758,17.01842],[106.42677,17.0211],[106.42363,17.02827],[106.4239,17.03222],[106.419,17.03453],[106.41526,17.03715],[106.41167,17.04045],[106.41063,17.0427],[106.40607,17.04636],[106.40552,17.04782],[106.40219,17.05149],[106.40307,17.05586],[106.4056,17.0591],[106.40576,17.06074],[106.40754,17.0633],[106.41258,17.06752],[106.41417,17.07157],[106.41391,17.07439],[106.41652,17.07856],[106.40966,17.08164],[106.4102,17.08357],[106.40762,17.08687],[106.4077,17.08877],[106.39955,17.09392],[106.39835,17.09678],[106.39637,17.09676],[106.39291,17.09943],[106.39138,17.10329],[106.39002,17.10398],[106.38446,17.10407],[106.37956,17.10725],[106.37736,17.10761],[106.37334,17.11101],[106.37279,17.11568],[106.37167,17.11804],[106.37203,17.12046],[106.37054,17.12439],[106.36471,17.13101],[106.35997,17.13228],[106.35651,17.13463],[106.35595,17.137],[106.35565,17.14343],[106.35308,17.14535],[106.35264,17.14719],[106.34861,17.14738],[106.35054,17.15201],[106.35284,17.15322],[106.35556,17.15644],[106.35619,17.15862],[106.3539,17.16017],[106.34829,17.16207],[106.34697,17.1645],[106.34554,17.1646],[106.3435,17.16687],[106.33971,17.16711],[106.33574,17.17106],[106.33219,17.17627],[106.33145,17.17843],[106.32801,17.18006],[106.32709,17.18279],[106.32467,17.18621],[106.32563,17.18846],[106.32108,17.19163],[106.32556,17.19755],[106.32603,17.19948],[106.31789,17.20235],[106.3154,17.20468],[106.3132,17.20438],[106.3105,17.20568],[106.30567,17.20689],[106.30285,17.20891],[106.30704,17.21242],[106.30849,17.21615],[106.31218,17.21733],[106.31447,17.21989],[106.31792,17.21848],[106.32032,17.21852],[106.32476,17.21573],[106.32614,17.21709],[106.32602,17.21988],[106.3285,17.22172],[106.32894,17.22484],[106.33158,17.22653],[106.33366,17.22625],[106.33449,17.23326],[106.33338,17.23552],[106.32945,17.23481],[106.32472,17.23647],[106.32429,17.23812],[106.3208,17.23769],[106.3178,17.23552],[106.31556,17.23659],[106.31353,17.23939],[106.30871,17.23886],[106.30899,17.24261],[106.31288,17.24234],[106.31511,17.24293],[106.31779,17.24513],[106.31763,17.24748],[106.31861,17.249],[106.3142,17.25354],[106.31141,17.25161],[106.30872,17.25756],[106.30701,17.2591],[106.30617,17.26553],[106.30682,17.26875],[106.3085,17.27082],[106.30732,17.27235],[106.30814,17.27737],[106.30703,17.27876],[106.30719,17.28402],[106.30537,17.28782],[106.30614,17.28994],[106.30415,17.29503],[106.30088,17.29355],[106.29686,17.29545],[106.29375,17.29581],[106.29099,17.29701],[106.28874,17.29613],[106.28412,17.29659],[106.28046,17.29552],[106.27529,17.2959],[106.27563,17.28965],[106.27492,17.28729],[106.27841,17.27949],[106.28097,17.27717],[106.28038,17.27148],[106.2796,17.26888],[106.27685,17.26316],[106.27572,17.26177],[106.26898,17.25983],[106.2666,17.2571],[106.26418,17.25608],[106.26214,17.25354],[106.2576,17.25347],[106.25614,17.25254],[106.2542,17.25333],[106.25127,17.25071],[106.25136,17.24447],[106.24826,17.24521],[106.24717,17.24859],[106.2452,17.25014],[106.24056,17.24961],[106.23601,17.2503],[106.23205,17.25156],[106.22919,17.25576],[106.22628,17.25675],[106.2244,17.2603],[106.22148,17.26106],[106.21385,17.26633],[106.21163,17.26848],[106.20915,17.26964],[106.20797,17.2712],[106.20214,17.27233],[106.19866,17.27427],[106.19548,17.27749],[106.18956,17.27984],[106.18784,17.28413],[106.18407,17.28743],[106.18324,17.28922],[106.17857,17.29343],[106.17565,17.29425],[106.1713,17.29823],[106.16691,17.29724],[106.16592,17.29879],[106.16359,17.29981],[106.16484,17.30246],[106.16153,17.30491],[106.15802,17.30555],[106.15584,17.30815],[106.14829,17.31182],[106.14571,17.31143],[106.14336,17.31627],[106.14569,17.31821],[106.14232,17.32133],[106.14469,17.325],[106.14266,17.32687],[106.14054,17.32695],[106.13609,17.32915],[106.13572,17.33389],[106.13296,17.3356],[106.12765,17.33984],[106.12396,17.33947],[106.12337,17.34109],[106.12036,17.34462],[106.11589,17.34724],[106.11317,17.3477],[106.1069,17.35301],[106.1047,17.3524],[106.10099,17.35645],[106.09785,17.35795],[106.09399,17.35877],[106.08023,17.37401],[106.00184,17.46241],[105.95917,17.51035],[105.87684,17.60318],[105.85833,17.62375],[105.85651,17.621],[105.85342,17.62026],[105.85199,17.6233],[105.85241,17.62654],[105.85403,17.62879],[105.85521,17.6342],[105.85414,17.63503],[105.84986,17.63428],[105.84647,17.63154],[105.8447,17.63141],[105.84069,17.6351],[105.83975,17.63173],[105.83621,17.62996],[105.83423,17.63315],[105.83228,17.63415],[105.83148,17.63748],[105.83239,17.63981],[105.83056,17.64165],[105.83133,17.64701],[105.82887,17.65011],[105.82935,17.65427],[105.82329,17.65318],[105.82254,17.65017],[105.81915,17.64469],[105.81687,17.64438],[105.81109,17.64886],[105.81061,17.65069],[105.80604,17.65531],[105.80614,17.65878],[105.80448,17.66043],[105.80099,17.65753],[105.79896,17.65797],[105.79872,17.66051],[105.79757,17.6621],[105.79391,17.66426],[105.79403,17.6664],[105.79168,17.67014],[105.78375,17.67056],[105.78173,17.67379],[105.77999,17.67481],[105.77806,17.67421],[105.77057,17.67403],[105.76717,17.67342],[105.76382,17.67011],[105.76313,17.66733],[105.761,17.66659],[105.75096,17.66838],[105.75017,17.67112],[105.75061,17.67281],[105.75026,17.67829],[105.74926,17.6841],[105.74838,17.68561],[105.74837,17.68927],[105.74704,17.69896],[105.74743,17.70157],[105.74573,17.70667],[105.74388,17.71581],[105.74351,17.72262],[105.74116,17.72088],[105.73688,17.71955],[105.73344,17.72134],[105.73094,17.72109],[105.7289,17.7236],[105.72801,17.73188],[105.72824,17.73688],[105.73047,17.74001],[105.73026,17.74508],[105.72544,17.74719],[105.72216,17.7498],[105.71849,17.75638],[105.71503,17.75759],[105.7126,17.75593],[105.70838,17.75969],[105.70584,17.75869],[105.70242,17.76063],[105.69926,17.76384],[105.69836,17.76688],[105.69575,17.76777],[105.693,17.77051],[105.69178,17.77385],[105.692,17.77633],[105.68843,17.78109],[105.68909,17.78462],[105.68171,17.78891],[105.67524,17.79491],[105.67533,17.79761],[105.67653,17.80052],[105.67748,17.80546],[105.68096,17.81107],[105.67986,17.81322],[105.68266,17.815],[105.68287,17.81788],[105.68431,17.81884],[105.68442,17.82229],[105.68318,17.82709],[105.68358,17.82923],[105.68304,17.83455],[105.67776,17.83493],[105.67464,17.84157],[105.6745,17.84636],[105.67267,17.84663],[105.67069,17.84922],[105.66594,17.85096],[105.6642,17.85244],[105.66195,17.8559],[105.65781,17.85441],[105.65439,17.85539],[105.65158,17.85522],[105.64487,17.85911],[105.64307,17.85923],[105.63981,17.85794],[105.63583,17.86302],[105.63645,17.86562],[105.63029,17.87014],[105.62818,17.87025],[105.62733,17.87279],[105.62754,17.876],[105.62342,17.87741],[105.62105,17.87741],[105.61802,17.87994],[105.61591,17.88003],[105.61399,17.88323],[105.61167,17.88445],[105.61084,17.88683],[105.61197,17.88929],[105.60909,17.89016],[105.60873,17.89442],[105.60805,17.89544],[105.61044,17.89975],[105.61365,17.9024],[105.61702,17.90432],[105.61936,17.91561],[105.6224,17.91878],[105.62249,17.9214],[105.62367,17.92396],[105.62255,17.92924],[105.62408,17.93475],[105.62447,17.93951],[105.62292,17.94192],[105.62506,17.94383],[105.62793,17.94487],[105.62849,17.95196],[105.63355,17.95662],[105.63524,17.95692],[105.63535,17.95981],[105.63906,17.95859],[105.64197,17.96117],[105.64306,17.96448],[105.64273,17.96987],[105.64208,17.97186],[105.64369,17.9748],[105.64382,17.97687],[105.6428,17.98063],[105.64349,17.98355],[105.64354,17.99246],[105.70475,17.99234],[105.70608,17.9925],[105.70776,17.99504],[105.71075,17.99622],[105.71314,17.99875],[105.71263,18.00116],[105.70459,17.9939],[105.70346,17.99341],[105.69484,17.99345],[105.66897,17.99424],[105.65523,17.99429],[105.64176,17.99356],[105.64034,17.99475],[105.63809,17.9946],[105.63384,17.993],[105.63114,17.99291],[105.62709,17.99536],[105.61901,18.00256],[105.61535,18.00736],[105.61356,18.01187],[105.61097,18.01295],[105.60239,18.00992],[105.59751,18.00608],[105.59684,18.00304],[105.59276,18.00557],[105.59226,18.01008],[105.58512,18.01235],[105.5828,18.01167],[105.58009,18.01474],[105.58043,18.01696],[105.57923,18.02372],[105.57781,18.02773],[105.58007,18.0333],[105.58338,18.03989],[105.58389,18.04406],[105.58074,18.04935],[105.58006,18.05894],[105.57889,18.063],[105.57373,18.06239],[105.57167,18.06363],[105.57047,18.06719],[105.57272,18.07221],[105.5696,18.08226],[105.56481,18.08521],[105.56221,18.08327],[105.55539,18.08142],[105.5422,18.08205],[105.5384,18.08331],[105.53778,18.08424],[105.53778,18.10584],[105.53758,18.10711],[105.53381,18.11309],[105.52269,18.12513],[105.51947,18.12705],[105.51292,18.12575],[105.51092,18.12333],[105.50832,18.12167],[105.5046,18.12482],[105.50185,18.13021],[105.50135,18.13451],[105.5024,18.1415],[105.50507,18.14683],[105.50886,18.1477],[105.51081,18.15014],[105.5094,18.15778],[105.50352,18.17519],[105.50305,18.18116],[105.5,18.1888],[105.49862,18.19052],[105.49668,18.18954],[105.49616,18.18773],[105.4917,18.178],[105.49005,18.17686],[105.48731,18.17705],[105.48525,18.18233],[105.4855,18.18723],[105.48779,18.19476],[105.49078,18.19735],[105.49188,18.2014],[105.48966,18.20359],[105.48473,18.20187],[105.48112,18.19794],[105.47873,18.19693],[105.4696,18.19991],[105.4597,18.20527],[105.4571,18.20588],[105.45403,18.20388],[105.44237,18.20547],[105.44017,18.20391],[105.44129,18.20176],[105.44444,18.2009],[105.4451,18.1986],[105.44442,18.19438],[105.43981,18.18785],[105.43705,18.18201],[105.43548,18.18091],[105.42971,18.17973],[105.42597,18.18403],[105.4201,18.18507],[105.41758,18.18319],[105.41322,18.1754],[105.41224,18.17225],[105.4132,18.16759],[105.41048,18.15778],[105.40832,18.1553],[105.40695,18.1552],[105.4027,18.15772],[105.40233,18.16016],[105.39821,18.1616],[105.39448,18.15983],[105.39107,18.1603],[105.38724,18.16353],[105.383,18.16923],[105.38203,18.17132],[105.37974,18.17045],[105.37599,18.16723],[105.37396,18.16123],[105.36541,18.16199],[105.36165,18.16547],[105.36087,18.16877],[105.35729,18.17658],[105.3549,18.17995],[105.35071,18.18436],[105.34929,18.18519],[105.3448,18.1837],[105.33529,18.18326],[105.33635,18.18944],[105.33553,18.19231],[105.32742,18.19339],[105.324,18.19555],[105.3181,18.2015],[105.31893,18.20459],[105.32366,18.20988],[105.32398,18.21286],[105.32293,18.22263],[105.32211,18.22428],[105.32152,18.22937],[105.32315,18.23629],[105.32649,18.2434],[105.32906,18.25407],[105.32795,18.26331],[105.32061,18.26575],[105.30931,18.26696],[105.30867,18.26734],[105.30322,18.25797],[105.30494,18.25489],[105.3044,18.25031],[105.30109,18.24244],[105.30026,18.23914],[105.29816,18.23655],[105.2942,18.24223],[105.29406,18.24753],[105.29609,18.25283],[105.29333,18.25642],[105.29108,18.25599],[105.2861,18.2568],[105.28591,18.25886],[105.28397,18.26094],[105.27975,18.26192],[105.27917,18.25887],[105.27542,18.25522],[105.2731,18.25544],[105.27131,18.25974],[105.26989,18.26082],[105.26247,18.26011],[105.25456,18.25987],[105.25416,18.26571],[105.25581,18.26686],[105.25619,18.2695],[105.2547,18.27373],[105.25148,18.27753],[105.247,18.2852],[105.24123,18.29723],[105.23893,18.29791],[105.23061,18.30192],[105.22768,18.30393],[105.22304,18.30476],[105.21552,18.30481],[105.21421,18.30788],[105.20769,18.31448],[105.20597,18.3157],[105.19938,18.31685],[105.19234,18.31901],[105.18253,18.32589],[105.18246,18.33086],[105.18554,18.341],[105.18779,18.3467],[105.1872,18.35253],[105.18327,18.36269],[105.17815,18.36988],[105.17808,18.37425],[105.17973,18.37933],[105.18283,18.38557],[105.18207,18.388],[105.17846,18.39047],[105.17045,18.39309],[105.16611,18.39302],[105.16446,18.38846],[105.16235,18.38787],[105.15614,18.38804],[105.15094,18.38905],[105.14822,18.39155],[105.14601,18.39691],[105.14527,18.40407],[105.13928,18.40795],[105.13643,18.40931],[105.13608,18.4131],[105.13831,18.41554],[105.13854,18.42073],[105.13773,18.42094],[105.13465,18.41734],[105.13301,18.41669],[105.12781,18.41641],[105.12196,18.41891],[105.11889,18.42193],[105.11777,18.42644],[105.11695,18.43259],[105.10854,18.43526],[105.10519,18.44042],[105.10219,18.44746],[105.10222,18.44982],[105.10412,18.45349],[105.10392,18.45868],[105.10638,18.46751],[105.10594,18.47232],[105.10731,18.48325],[105.10798,18.48604],[105.11025,18.4901],[105.11067,18.49632],[105.10972,18.50062],[105.1084,18.50378],[105.10868,18.50793],[105.11058,18.51442],[105.11351,18.52036],[105.11644,18.52171],[105.11776,18.52451],[105.11408,18.52803],[105.11314,18.53262],[105.11415,18.53976],[105.11592,18.54102],[105.11966,18.54208],[105.12429,18.54596],[105.12732,18.55019],[105.12581,18.55497],[105.12628,18.55677],[105.13078,18.56029],[105.13394,18.56082],[105.13781,18.56253],[105.13762,18.56524],[105.13253,18.57047],[105.13357,18.57921],[105.13481,18.58327],[105.13447,18.58641],[105.13294,18.59092],[105.13328,18.59301],[105.13739,18.59734],[105.15005,18.60678],[105.15543,18.61129],[105.1576,18.61426],[105.16587,18.61248],[105.17026,18.60794],[105.18122,18.60347],[105.18681,18.60338],[105.18981,18.60542],[105.19052,18.60945],[105.19175,18.62082],[105.18999,18.62319],[105.18929,18.62597],[105.18976,18.63077],[105.19178,18.63587],[105.19603,18.63809],[105.19726,18.64025],[105.19515,18.64632],[105.19346,18.64912],[105.18824,18.64731],[105.18707,18.64783],[105.1838,18.65332],[105.1824,18.65688],[105.17929,18.65886],[105.17314,18.6595],[105.17031,18.65797],[105.16683,18.65822],[105.16554,18.65941],[105.16211,18.66525],[105.15956,18.67079],[105.15303,18.67745],[105.15038,18.67962],[105.14897,18.67971],[105.14592,18.67766],[105.14023,18.67942],[105.13833,18.68106],[105.13277,18.68844],[105.13528,18.69001],[105.1392,18.69939],[105.14364,18.70251],[105.13875,18.70496],[105.13604,18.70705],[105.13217,18.71533],[105.13031,18.71584],[105.12527,18.71434],[105.12104,18.71249],[105.11402,18.71471],[105.11222,18.71426],[105.10664,18.7092],[105.10356,18.7041],[105.09189,18.7058],[105.08621,18.70833],[105.0783,18.70741],[105.07131,18.70447],[105.06636,18.7086],[105.06457,18.70906],[105.05106,18.70728],[105.04823,18.7082],[105.05133,18.71573],[105.05654,18.72186],[105.05735,18.72479],[105.05099,18.72941],[105.0495,18.73005],[105.04136,18.72587],[105.03688,18.72535],[105.03406,18.72728],[105.03326,18.72925],[105.02844,18.72917],[105.01752,18.73184],[105.01554,18.73473],[105.01456,18.73746],[105.01877,18.74668],[105.0148,18.74372],[105.00787,18.74285],[105.00423,18.74172],[104.99771,18.73818],[104.99225,18.74231],[104.99122,18.74426],[104.98763,18.74545],[104.98407,18.74377],[104.9813,18.73992],[104.98025,18.73979],[104.97008,18.74281],[104.96611,18.74369],[104.96046,18.74233],[104.95669,18.74052],[104.95009,18.74107],[104.94071,18.73955],[104.93945,18.74166],[104.93933,18.74763],[104.93882,18.75039],[104.93674,18.75535],[104.93571,18.7558],[104.93478,18.7599],[104.9366,18.7645],[104.93718,18.77138],[104.93636,18.77456],[104.93299,18.77612],[104.92525,18.78046],[104.92415,18.78178],[104.92308,18.7861],[104.92163,18.7873],[104.91917,18.78687],[104.91816,18.78552],[104.91191,18.79167],[104.90901,18.79093],[104.90835,18.78845],[104.90657,18.78741],[104.89939,18.78757],[104.89159,18.78553],[104.87221,18.78683],[104.86777,18.78208],[104.86186,18.78225],[104.85849,18.77949],[104.85524,18.77564],[104.84929,18.77814],[104.84749,18.78151],[104.84566,18.7834],[104.83937,18.7864],[104.83116,18.78647],[104.81971,18.78468],[104.80329,18.78312],[104.79805,18.78338],[104.79333,18.78494],[104.78829,18.79061],[104.78579,18.79577],[104.78484,18.79888],[104.78279,18.803],[104.7753,18.80271],[104.77303,18.80209],[104.76457,18.79844],[104.7573,18.79714],[104.7504,18.79955],[104.74498,18.80209],[104.73768,18.80151],[104.73653,18.80261],[104.73483,18.80855],[104.73476,18.81404],[104.73191,18.81693],[104.72681,18.81841],[104.7228,18.81894],[104.71786,18.82296],[104.71597,18.82934],[104.71294,18.83088],[104.71281,18.83652],[104.71331,18.83887],[104.71277,18.84141],[104.70955,18.83999],[104.70761,18.83765],[104.70321,18.83755],[104.70114,18.84047],[104.69692,18.84127],[104.69362,18.83969],[104.68871,18.8362],[104.6837,18.83656],[104.6755,18.83839],[104.67216,18.84188],[104.66764,18.84844],[104.66832,18.84962],[104.66788,18.85314],[104.66393,18.85656],[104.66076,18.85852],[104.65255,18.86609],[104.64475,18.86914],[104.64027,18.8699],[104.63594,18.87007],[104.63438,18.87091],[104.62542,18.88012],[104.62696,18.88536],[104.62628,18.88882],[104.61767,18.89273],[104.60663,18.89468],[104.59863,18.89797],[104.5914,18.90275],[104.58699,18.90486],[104.58494,18.90465],[104.57759,18.90263],[104.57669,18.90417],[104.57658,18.90934],[104.57592,18.91247],[104.57062,18.91896],[104.56698,18.92439],[104.56338,18.93176],[104.56358,18.93446],[104.55999,18.94039],[104.55498,18.94327],[104.54759,18.95093],[104.54347,18.95665],[104.54222,18.95992],[104.54357,18.96619],[104.5422,18.9735],[104.5398,18.97711],[104.53029,18.98432],[104.52655,18.98543],[104.5184,18.98127],[104.51141,18.98242],[104.50918,18.98434],[104.50405,18.99275],[104.50121,18.99915],[104.49609,19.00296],[104.48472,19.00455],[104.47965,19.00436],[104.47465,18.99838],[104.47334,18.9929],[104.46782,18.98921],[104.46088,18.99189],[104.45506,18.98917],[104.45223,18.98619],[104.44702,18.98651],[104.44047,18.99529],[104.43331,19.00007],[104.42795,19.00576],[104.42321,19.00594],[104.42096,19.00842],[104.42429,19.01629],[104.41174,19.03069],[104.40218,19.03744],[104.39956,19.04013],[104.39964,19.04428],[104.40209,19.05246],[104.40162,19.05557],[104.3968,19.05897],[104.38867,19.06103],[104.38606,19.06103],[104.38171,19.06212],[104.37698,19.06543],[104.37338,19.0696],[104.36865,19.07291],[104.36491,19.07459],[104.35344,19.07241],[104.33399,19.07861],[104.31566,19.08808],[104.31258,19.08934],[104.31131,19.08875],[104.30841,19.0902],[104.30345,19.09606],[104.30411,19.10032],[104.30031,19.1121],[104.29834,19.1144],[104.29375,19.11316],[104.28845,19.11779],[104.28427,19.11852],[104.27939,19.1209],[104.27113,19.12069],[104.26898,19.12024],[104.26255,19.11719],[104.25719,19.11655],[104.24843,19.1111],[104.2469,19.11248],[104.23969,19.11528],[104.23516,19.11442],[104.23213,19.11289],[104.22362,19.11574],[104.21233,19.12126],[104.21154,19.12431],[104.2155,19.12721],[104.21752,19.13135],[104.21748,19.13302],[104.21589,19.13573],[104.21741,19.13714],[104.21733,19.14143],[104.21811,19.14328],[104.22462,19.14911],[104.22435,19.15411],[104.22262,19.1578],[104.21199,19.16111],[104.20679,19.16079],[104.19903,19.16222],[104.19645,19.16541],[104.19507,19.17208],[104.19351,19.17419],[104.19273,19.18151],[104.19028,19.18439],[104.18685,19.18953],[104.18491,19.1936],[104.17975,19.19891],[104.17546,19.19787],[104.17093,19.19798],[104.16284,19.1999],[104.15723,19.19995],[104.14929,19.20055],[104.14232,19.20251],[104.13965,19.20432],[104.1352,19.20594],[104.12825,19.20524],[104.12346,19.20997],[104.12208,19.21343],[104.11879,19.21799],[104.11438,19.22279],[104.11221,19.22282],[104.11087,19.22444],[104.10282,19.21612],[104.10147,19.21301],[104.09939,19.21596],[104.09945,19.21866],[104.09712,19.22032],[104.09394,19.22577],[104.09214,19.23025],[104.08497,19.23443],[104.0824,19.23459],[104.0807,19.23765],[104.07583,19.23949],[104.07437,19.24215],[104.0716,19.2444],[104.07037,19.2471],[104.06836,19.24785],[104.06324,19.24516],[104.05808,19.2406],[104.05404,19.24289],[104.05093,19.2437],[104.04933,19.24202],[104.04634,19.24394],[104.04195,19.24123],[104.03504,19.2407],[104.02674,19.23799],[104.0174,19.23745],[104.01335,19.23566],[104.00808,19.23465],[104.00192,19.23144],[104.00079,19.23017],[103.99651,19.23183],[103.99286,19.239],[103.98808,19.24082],[103.97911,19.24498],[103.97497,19.24458],[103.96993,19.24666],[103.96305,19.25102],[103.9601,19.25211],[103.95603,19.25577],[103.94361,19.26869],[103.9352,19.27537],[103.92218,19.28639],[103.91984,19.29262],[103.91503,19.29732],[103.91675,19.30044],[103.91409,19.30334],[103.91145,19.30455],[103.90507,19.3065],[103.89811,19.30981],[103.893,19.30831],[103.89072,19.30702],[103.88984,19.30349],[103.88863,19.30205],[103.88534,19.30102],[103.88254,19.30236],[103.88207,19.30431],[103.87992,19.30565],[103.87414,19.3067],[103.87285,19.31183],[103.87364,19.3152],[103.87346,19.31761],[103.87502,19.32056],[103.8808,19.32295],[103.88235,19.32682],[103.88611,19.32769],[103.88844,19.3296],[103.89283,19.33165],[103.89755,19.33184],[103.90457,19.33064],[103.90765,19.33132],[103.91233,19.33381],[103.91444,19.33548],[103.91624,19.33884],[103.91741,19.34271],[103.91899,19.34342],[103.92542,19.34388],[103.92918,19.34524],[103.93238,19.34725],[103.94657,19.3572],[103.95009,19.35821],[103.95124,19.35949],[103.95055,19.36368],[103.95123,19.36556],[103.95449,19.36548],[103.95753,19.3702],[103.95752,19.37254],[103.95897,19.37591],[103.95821,19.38161],[103.95565,19.38271],[103.95612,19.38534],[103.95989,19.38616],[103.96247,19.39002],[103.96467,19.39157],[103.96901,19.39201],[103.97225,19.39495],[103.97312,19.39824],[103.97443,19.39942],[103.98267,19.40028],[103.98578,19.3999],[103.98817,19.40167],[103.99012,19.40567],[103.99282,19.40651],[103.99588,19.40614],[104.00176,19.40463],[104.00342,19.40368],[104.00874,19.40295],[104.01255,19.40375],[104.01421,19.40828],[104.01708,19.40785],[104.01906,19.40995],[104.02108,19.41652],[104.02258,19.41703],[104.02961,19.41596],[104.03124,19.41659],[104.03463,19.42048],[104.0416,19.42235],[104.04749,19.42638],[104.04985,19.426],[104.05148,19.42019],[104.05246,19.41915],[104.05671,19.41861],[104.06143,19.41735],[104.06546,19.41824],[104.06875,19.41828],[104.07041,19.42147],[104.07089,19.42407],[104.07129,19.43852],[104.07289,19.44552],[104.0739,19.44812],[104.07316,19.45098],[104.06487,19.45241],[104.06356,19.45361],[104.07008,19.45725],[104.07372,19.46084],[104.0754,19.46382],[104.07759,19.46427],[104.07983,19.46742],[104.08433,19.46794],[104.08344,19.47288],[104.08452,19.47597],[104.08343,19.47878],[104.0838,19.48073],[104.08654,19.48394],[104.0891,19.48599],[104.09074,19.48995],[104.0925,19.49041],[104.09666,19.49346],[104.09971,19.49175],[104.10539,19.48993],[104.11021,19.4905],[104.11321,19.49205],[104.11582,19.49742],[104.11574,19.50017],[104.12087,19.50226],[104.12154,19.50428],[104.11644,19.50905],[104.11354,19.51033],[104.11112,19.51318],[104.11099,19.51586],[104.1096,19.51722],[104.10591,19.51824],[104.10201,19.52447],[104.10498,19.52634],[104.10725,19.5305],[104.10792,19.53366],[104.10756,19.53923],[104.10807,19.54201],[104.10412,19.54675],[104.10351,19.5485],[104.1048,19.55061],[104.10318,19.55545],[104.10364,19.56459],[104.10445,19.56647],[104.10692,19.56871],[104.10495,19.57125],[104.09757,19.5765],[104.09174,19.57969],[104.0856,19.58229],[104.082,19.58651],[104.07416,19.59856],[104.07178,19.60277],[104.06852,19.60745],[104.06424,19.61181],[104.06201,19.61496],[104.05959,19.61967],[104.05926,19.62149],[104.06039,19.62706],[104.06331,19.6324],[104.06731,19.63645],[104.06699,19.63864],[104.06514,19.64286],[104.06302,19.64473],[104.05768,19.64759],[104.05567,19.65197],[104.0558,19.65313],[104.05955,19.65663],[104.0643,19.65986],[104.06678,19.66337],[104.06857,19.667],[104.07017,19.6726],[104.07015,19.67611],[104.06919,19.68113],[104.07246,19.68211],[104.07532,19.68066],[104.08042,19.6766],[104.08451,19.6718],[104.09086,19.66642],[104.09533,19.66637],[104.10367,19.66386],[104.10609,19.66154],[104.1097,19.66108],[104.11613,19.6613],[104.12586,19.6632],[104.12992,19.66335],[104.13319,19.66231],[104.13676,19.66291],[104.14405,19.66563],[104.1487,19.66672],[104.15267,19.66894],[104.15572,19.6724],[104.15608,19.67398],[104.15524,19.68355],[104.15698,19.69147],[104.1594,19.69651],[104.16278,19.69745],[104.17042,19.69156],[104.17295,19.69008],[104.17578,19.69049],[104.17975,19.69408],[104.1852,19.69549],[104.1974,19.69362],[104.19957,19.6945],[104.20333,19.69975],[104.20814,19.70294],[104.213,19.70491],[104.21982,19.70626],[104.22614,19.70652],[104.23112,19.70775],[104.23618,19.70821],[104.24856,19.70576],[104.25307,19.70386],[104.2599,19.70375],[104.26401,19.70139],[104.26591,19.69921],[104.26854,19.69754],[104.27831,19.69589],[104.2865,19.69513],[104.29808,19.6984],[104.30165,19.69846],[104.30616,19.6969],[104.31482,19.69116],[104.31872,19.68795],[104.32062,19.68518],[104.32093,19.68303],[104.31983,19.67963],[104.31743,19.67485],[104.31685,19.67107],[104.31832,19.66831],[104.32188,19.67075],[104.33481,19.67674],[104.33909,19.68123],[104.34105,19.68725],[104.34567,19.69121],[104.34982,19.69303],[104.35287,19.69368],[104.35997,19.69259],[104.3651,19.69549],[104.36843,19.69655],[104.37232,19.69673],[104.3789,19.69641],[104.38183,19.69712],[104.38569,19.69987],[104.39007,19.7],[104.3937,19.69864],[104.39787,19.69833],[104.401,19.70001],[104.4021,19.70468],[104.40397,19.70626],[104.40737,19.70726],[104.41397,19.70774],[104.41634,19.70683],[104.42076,19.70218],[104.42085,19.69921],[104.4193,19.69541],[104.41972,19.69305],[104.42147,19.69056],[104.42147,19.68879],[104.4201,19.68314],[104.42095,19.68038],[104.42493,19.67409],[104.42688,19.67285],[104.42926,19.67266],[104.43605,19.6736],[104.44251,19.67349],[104.4446,19.67245],[104.44596,19.67011],[104.44567,19.66543],[104.44276,19.66056],[104.44354,19.65872],[104.44875,19.65664],[104.45683,19.65095],[104.46069,19.64977],[104.46593,19.65],[104.46916,19.6516],[104.47613,19.65593],[104.47953,19.65634],[104.48655,19.65557],[104.48913,19.65481],[104.49247,19.65139],[104.49434,19.64244],[104.49689,19.63768],[104.50315,19.63303],[104.50435,19.62673],[104.50561,19.62326],[104.50707,19.62234],[104.51346,19.62197],[104.52007,19.61857],[104.5246,19.61444],[104.52676,19.61347],[104.53141,19.61282],[104.53523,19.61329],[104.53745,19.61422],[104.54209,19.61902],[104.54424,19.61981],[104.54653,19.61943],[104.55175,19.6157],[104.55537,19.61262],[104.5594,19.61164],[104.5633,19.6139],[104.56697,19.61468],[104.57001,19.61709],[104.57243,19.62192],[104.57722,19.62741],[104.58254,19.62981],[104.58998,19.63161],[104.59561,19.63077],[104.59894,19.63071],[104.60213,19.63229],[104.60727,19.63408],[104.61019,19.63415],[104.61248,19.63334],[104.61703,19.62935],[104.61873,19.62894],[104.62458,19.62912],[104.62845,19.62812],[104.63367,19.62326],[104.63743,19.62285],[104.64245,19.62381],[104.64491,19.62556],[104.64667,19.62818],[104.65033,19.63633],[104.64932,19.64208],[104.64567,19.6491],[104.64533,19.65299],[104.65149,19.65909],[104.65748,19.65984],[104.65961,19.66109],[104.65993,19.66326],[104.65833,19.66948],[104.65852,19.67371],[104.66324,19.67673],[104.66309,19.68041],[104.66406,19.68179],[104.66829,19.68397],[104.6691,19.68673],[104.66613,19.69151],[104.66131,19.70089],[104.66193,19.70306],[104.66651,19.70504],[104.672,19.70813],[104.67602,19.71149],[104.68052,19.71694],[104.68323,19.72187],[104.68732,19.72444],[104.69302,19.72517],[104.69503,19.72741],[104.69905,19.73556],[104.70751,19.74332],[104.71836,19.75259],[104.72431,19.75654],[104.72876,19.75727],[104.73078,19.75642],[104.73684,19.75039],[104.74059,19.75033],[104.7474,19.75132],[104.75324,19.7512],[104.75643,19.75298],[104.75691,19.75784],[104.75844,19.7602],[104.76545,19.76435],[104.76656,19.76678],[104.76287,19.7734],[104.76224,19.77557],[104.7637,19.77682],[104.76857,19.77656],[104.77545,19.77848],[104.78322,19.78531],[104.78774,19.78729],[104.79323,19.79025],[104.79594,19.79124],[104.79789,19.79091],[104.80081,19.78855],[104.80318,19.78757],[104.80964,19.78758],[104.81521,19.78561],[104.82077,19.78627],[104.82501,19.78766],[104.82911,19.79075],[104.83286,19.79469],[104.83563,19.79968],[104.83681,19.80356],[104.83715,19.8075],[104.83416,19.81393],[104.83346,19.81642],[104.83456,19.82463],[104.83609,19.82916],[104.83901,19.83317],[104.84533,19.83843],[104.847,19.84197],[104.84679,19.8444],[104.8447,19.84768],[104.84059,19.84965],[104.83412,19.852],[104.83252,19.85345],[104.8324,19.85621],[104.83321,19.8587],[104.8355,19.86054],[104.83967,19.86206],[104.84273,19.86383],[104.84579,19.86718],[104.84746,19.8702],[104.8478,19.87296],[104.84668,19.87664],[104.84376,19.88162],[104.84048,19.88812],[104.8411,19.8914],[104.84298,19.89672],[104.84387,19.90532],[104.8445,19.90736],[104.84686,19.91091],[104.84658,19.91307],[104.84261,19.9155],[104.84075,19.91855],[104.84114,19.9213],[104.84557,19.93144],[104.85038,19.93537],[104.86039,19.94471],[104.86871,19.94888],[104.87521,19.95153],[104.8877,19.9554],[104.89369,19.95982],[104.90136,19.96719],[104.90678,19.97556],[104.90828,19.98317],[104.90969,19.98666],[104.91756,19.995],[104.91868,19.99732],[104.91683,19.99833],[104.91274,19.99785],[104.91135,20],[104.91594,20.01228],[104.91941,20.02041],[104.9323,20.03648],[104.93926,20.04307],[104.95707,20.05276],[104.96403,20.05934],[104.96936,20.06283],[104.97263,20.06902],[104.97366,20.07793],[104.97837,20.0847],[104.98464,20.091],[103.606,20.091],[103.606,14.3],[107.40464,14.3]]]},"properties":null},{"type":"Feature","geometry":{"type":"Polygon","coordinates":[[[109.386,18.29672],[109.386,19.8767],[109.36883,19.88931],[109.3379,19.88988],[109.3213,19.89204],[109.31422,19.89985],[109.31137,19.9195],[109.30372,19.9217],[109.28004,19.9029],[109.27052,19.90009],[109.26157,19.90082],[109.25514,19.89834],[109.2527,19.88589],[109.25172,19.8747],[109.24871,19.86884],[109.23561,19.85883],[109.2295,19.85537],[109.22486,19.85554],[109.21949,19.85468],[109.21119,19.84829],[109.20737,19.84357],[109.20094,19.83259],[109.19752,19.82783],[109.18678,19.82001],[109.17555,19.81403],[109.16684,19.80549],[109.16334,19.79027],[109.16725,19.74274],[109.16334,19.7248],[109.17018,19.7248],[109.17482,19.73037],[109.18133,19.73599],[109.19752,19.74584],[109.21013,19.74974],[109.23561,19.76236],[109.261,19.77871],[109.2732,19.79365],[109.28151,19.79019],[109.28924,19.78791],[109.29737,19.78685],[109.30738,19.78685],[109.30047,19.77684],[109.29575,19.77464],[109.28679,19.77318],[109.28679,19.76569],[109.2942,19.76569],[109.2942,19.75951],[109.27467,19.75723],[109.28159,19.74433],[109.29819,19.72679],[109.30738,19.71113],[109.30047,19.71113],[109.28321,19.7248],[109.27272,19.7294],[109.25896,19.73164],[109.24399,19.72993],[109.21852,19.72297],[109.21119,19.7248],[109.20493,19.71857],[109.20582,19.69843],[109.19207,19.67845],[109.15651,19.64964],[109.13356,19.64338],[109.12892,19.6402],[109.11842,19.63117],[109.10336,19.62629],[109.07887,19.61274],[109.06707,19.60871],[109.01588,19.60126],[109.00847,19.59707],[109.00221,19.58723],[108.99269,19.56778],[108.95655,19.53461],[108.94077,19.51411],[108.94484,19.49885],[108.94484,19.49201],[108.93735,19.49201],[108.92449,19.50625],[108.90333,19.49335],[108.8698,19.45791],[108.82749,19.44424],[108.81788,19.4392],[108.79819,19.42585],[108.79029,19.42316],[108.77068,19.39436],[108.76295,19.38898],[108.75221,19.38695],[108.72918,19.378],[108.71453,19.37592],[108.69435,19.38032],[108.68653,19.37788],[108.68344,19.36542],[108.67954,19.3581],[108.67254,19.35126],[108.66928,19.34374],[108.67726,19.33438],[108.67726,19.32758],[108.66684,19.32518],[108.6631,19.3205],[108.66456,19.31428],[108.66261,19.30972],[108.64967,19.31123],[108.64479,19.31037],[108.64731,19.30353],[108.64943,19.29963],[108.64112,19.29491],[108.63168,19.28628],[108.62696,19.27497],[108.63795,19.24897],[108.63071,19.23798],[108.62176,19.2281],[108.62208,19.21772],[108.63429,19.21255],[108.65008,19.2128],[108.66391,19.20962],[108.66993,19.19408],[108.67189,19.173],[108.67604,19.16218],[108.68344,19.15624],[108.68344,19.15005],[108.67897,19.15205],[108.6631,19.15624],[108.65691,19.1398],[108.6443,19.12417],[108.62908,19.11091],[108.61525,19.10163],[108.64259,19.01846],[108.64259,18.98281],[108.64601,18.97748],[108.6504,18.97358],[108.65358,18.96434],[108.65626,18.944],[108.65382,18.92105],[108.64723,18.90323],[108.62892,18.86823],[108.62387,18.84919],[108.62745,18.83588],[108.63697,18.8251],[108.64943,18.81362],[108.66814,18.78864],[108.68336,18.75617],[108.69361,18.71987],[108.69711,18.6833],[108.69093,18.60472],[108.68719,18.58784],[108.67945,18.57225],[108.67408,18.55484],[108.67726,18.53242],[108.68491,18.5152],[108.695,18.50483],[108.7107,18.49966],[108.75514,18.49698],[108.77556,18.49307],[108.79558,18.48656],[108.83107,18.4687],[108.86866,18.44383],[108.87599,18.43317],[108.88592,18.42666],[108.93735,18.40892],[108.95281,18.40229],[108.96095,18.39387],[108.96778,18.38447],[108.97902,18.37482],[108.9909,18.36872],[109.00074,18.36717],[109.09165,18.3686],[109.10157,18.36603],[109.11118,18.36127],[109.12208,18.35822],[109.136,18.36115],[109.12916,18.34748],[109.1395,18.34073],[109.14235,18.32868],[109.14389,18.31415],[109.14967,18.29971],[109.16261,18.28783],[109.17311,18.28815],[109.1906,18.29971],[109.21811,18.30565],[109.33351,18.30427],[109.386,18.29672]]]},"properties":null}]}