{"type":"FeatureCollection","features":[{"type":"Feature","properties":{"kind":"province","text":"Thanh Hoá"},"geometry":{"type":"Point","coordinates":[105.5337,19.7972]}},{"type":"Feature","properties":{"kind":"province","text":"Nghệ An"},"geometry":{"type":"Point","coordinates":[104.9441,19.2374]}},{"type":"Feature","properties":{"kind":"province","text":"Hà Tĩnh"},"geometry":{"type":"Point","coordinates":[105.7349,18.2912]}},{"type":"Feature","properties":{"kind":"province","text":"Huế"},"geometry":{"type":"Point","coordinates":[107.5173,16.3316]}},{"type":"Feature","properties":{"kind":"province","text":"Đà Nẵng"},"geometry":{"type":"Point","coordinates":[107.9656,15.631]}},{"type":"Feature","properties":{"kind":"province","text":"Quảng Ngãi"},"geometry":{"type":"Point","coordinates":[107.9865,14.6546]}},{"type":"Feature","properties":{"kind":"province","text":"Gia Lai"},"geometry":{"type":"Point","coordinates":[108.8544,14.4638]}},{"type":"Feature","properties":{"kind":"country","text":"Lào"},"geometry":{"type":"Point","coordinates":[105.75,16.85]}},{"type":"Feature","properties":{"kind":"sea","text":"Biển Đông"},"geometry":{"type":"Point","coordinates":[107.15,17.85]}}]}