{"type":"FeatureCollection","features":[{"type":"Feature","geometry":{"type":"Point","coordinates":[106.59016,17.49582]},"properties":{"name":"Đồng Thuận","nameEn":"Dong Thuan","fullName":"Phường Đồng Thuận","fullNameEn":"Dong Thuan Ward","codeName":"dong_thuan","areaKm2":26.49,"postalCode":"47123","code":"18859"}},{"type":"Feature","geometry":{"type":"Point","coordinates":[106.55541,17.43605]},"properties":{"name":"Đồng Sơn","nameEn":"Dong Son","fullName":"Phường Đồng Sơn","fullNameEn":"Dong Son Ward","codeName":"dong_son","areaKm2":88.03,"postalCode":"47110","code":"18871"}},{"type":"Feature","geometry":{"type":"Point","coordinates":[106.62586,17.45625]},"properties":{"name":"Đồng Hới","nameEn":"Dong Hoi","fullName":"Phường Đồng Hới","fullNameEn":"Dong Hoi Ward","codeName":"dong_hoi","areaKm2":41.35,"postalCode":"47122","code":"18880"}},{"type":"Feature","geometry":{"type":"Point","coordinates":[105.94972,17.84857]},"properties":{"name":"Minh Hoá","nameEn":"Minh Hoa","fullName":"Xã Minh Hoá","fullNameEn":"Minh Hoa Commune","codeName":"minh_hoa","areaKm2":156.97,"postalCode":"47622","code":"18901"}},{"type":"Feature","geometry":{"type":"Point","coordinates":[105.74588,17.82602]},"properties":{"name":"Dân Hoá","nameEn":"Dan Hoa","fullName":"Xã Dân Hoá","fullNameEn":"Dan Hoa Commune","codeName":"dan_hoa","areaKm2":365,"postalCode":"47613","code":"18904"}},{"type":"Feature","geometry":{"type":"Point","coordinates":[105.84388,17.88242]},"properties":{"name":"Tân Thành","nameEn":"Tan Thanh","fullName":"Xã Tân Thành","fullNameEn":"Tan Thanh Commune","codeName":"tan_thanh","areaKm2":89.77,"postalCode":"47610","code":"18919"}},{"type":"Feature","geometry":{"type":"Point","coordinates":[105.86108,17.74282]},"properties":{"name":"Kim Điền","nameEn":"Kim Dien","fullName":"Xã Kim Điền","fullNameEn":"Kim Dien Commune","codeName":"kim_dien","areaKm2":229.42,"postalCode":"47623","code":"18922"}},{"type":"Feature","geometry":{"type":"Point","coordinates":[105.98256,17.67964]},"properties":{"name":"Kim Phú","nameEn":"Kim Phu","fullName":"Xã Kim Phú","fullNameEn":"Kim Phu Commune","codeName":"kim_phu","areaKm2":552.57,"postalCode":"47624","code":"18943"}},{"type":"Feature","geometry":{"type":"Point","coordinates":[105.9918,17.94824]},"properties":{"name":"Đồng Lê","nameEn":"Dong Le","fullName":"Xã Đồng Lê","fullNameEn":"Dong Le Commune","codeName":"dong_le","areaKm2":291.93,"postalCode":"47506","code":"18949"}},{"type":"Feature","geometry":{"type":"Point","coordinates":[105.89389,18.03981]},"properties":{"name":"Tuyên Sơn","nameEn":"Tuyen Son","fullName":"Xã Tuyên Sơn","fullNameEn":"Tuyen Son Commune","codeName":"tuyen_son","areaKm2":132.14,"postalCode":"47526","code":"18952"}},{"type":"Feature","geometry":{"type":"Point","coordinates":[105.76141,17.96701]},"properties":{"name":"Tuyên Lâm","nameEn":"Tuyen Lam","fullName":"Xã Tuyên Lâm","fullNameEn":"Tuyen Lam Commune","codeName":"tuyen_lam","areaKm2":235.2,"postalCode":"47527","code":"18958"}},{"type":"Feature","geometry":{"type":"Point","coordinates":[106.1157,17.86732]},"properties":{"name":"Tuyên Phú","nameEn":"Tuyen Phu","fullName":"Xã Tuyên Phú","fullNameEn":"Tuyen Phu Commune","codeName":"tuyen_phu","areaKm2":155.38,"postalCode":"47528","code":"18985"}},{"type":"Feature","geometry":{"type":"Point","coordinates":[106.20376,17.8437]},"properties":{"name":"Tuyên Bình","nameEn":"Tuyen Binh","fullName":"Xã Tuyên Bình","fullNameEn":"Tuyen Binh Commune","codeName":"tuyen_binh","areaKm2":119.19,"postalCode":"47529","code":"18991"}},{"type":"Feature","geometry":{"type":"Point","coordinates":[106.20305,17.76511]},"properties":{"name":"Tuyên Hoá","nameEn":"Tuyen Hoa","fullName":"Xã Tuyên Hoá","fullNameEn":"Tuyen Hoa Commune","codeName":"tuyen_hoa","areaKm2":194.92,"postalCode":"47530","code":"18997"}},{"type":"Feature","geometry":{"type":"Point","coordinates":[106.41519,17.75939]},"properties":{"name":"Ba Đồn","nameEn":"Ba Don","fullName":"Phường Ba Đồn","fullNameEn":"Ba Don Ward","codeName":"ba_don","areaKm2":20.45,"postalCode":"47306","code":"19009"}},{"type":"Feature","geometry":{"type":"Point","coordinates":[106.37121,17.94714]},"properties":{"name":"Phú Trạch","nameEn":"Phu Trach","fullName":"Xã Phú Trạch","fullNameEn":"Phu Trach Commune","codeName":"phu_trach","areaKm2":197.41,"postalCode":"47427","code":"19021"}},{"type":"Feature","geometry":{"type":"Point","coordinates":[106.32494,17.84056]},"properties":{"name":"Trung Thuần","nameEn":"Trung Thuan","fullName":"Xã Trung Thuần","fullNameEn":"Trung Thuan Commune","codeName":"trung_thuan","areaKm2":98.83,"postalCode":"47425","code":"19030"}},{"type":"Feature","geometry":{"type":"Point","coordinates":[106.38579,17.8742]},"properties":{"name":"Hoà Trạch","nameEn":"Hoa Trach","fullName":"Xã Hoà Trạch","fullNameEn":"Hoa Trach Commune","codeName":"hoa_trach","areaKm2":52.67,"postalCode":"47426","code":"19033"}},{"type":"Feature","geometry":{"type":"Point","coordinates":[106.31684,17.78818]},"properties":{"name":"Tân Gianh","nameEn":"Tan Gianh","fullName":"Xã Tân Gianh","fullNameEn":"Tan Gianh Commune","codeName":"tan_gianh","areaKm2":41.05,"postalCode":"47428","code":"19051"}},{"type":"Feature","geometry":{"type":"Point","coordinates":[106.39927,17.78963]},"properties":{"name":"Quảng Trạch","nameEn":"Quang Trach","fullName":"Xã Quảng Trạch","fullNameEn":"Quang Trach Commune","codeName":"quang_trach","areaKm2":56.64,"postalCode":"47424","code":"19057"}},{"type":"Feature","geometry":{"type":"Point","coordinates":[106.45413,17.73622]},"properties":{"name":"Bắc Gianh","nameEn":"Bac Gianh","fullName":"Phường Bắc Gianh","fullNameEn":"Bac Gianh Ward","codeName":"bac_gianh","areaKm2":31.14,"postalCode":"47322","code":"19066"}},{"type":"Feature","geometry":{"type":"Point","coordinates":[106.31717,17.72396]},"properties":{"name":"Nam Ba Đồn","nameEn":"Nam Ba Don","fullName":"Xã Nam Ba Đồn","fullNameEn":"Nam Ba Don Commune","codeName":"nam_ba_don","areaKm2":76.3,"postalCode":"47323","code":"19075"}},{"type":"Feature","geometry":{"type":"Point","coordinates":[106.3851,17.72607]},"properties":{"name":"Nam Gianh","nameEn":"Nam Gianh","fullName":"Xã Nam Gianh","fullNameEn":"Nam Gianh Commune","codeName":"nam_gianh","areaKm2":34.43,"postalCode":"47324","code":"19093"}},{"type":"Feature","geometry":{"type":"Point","coordinates":[106.51106,17.56581]},"properties":{"name":"Hoàn Lão","nameEn":"Hoan Lao","fullName":"Xã Hoàn Lão","fullNameEn":"Hoan Lao Commune","codeName":"hoan_lao","areaKm2":99.03,"postalCode":"47206","code":"19111"}},{"type":"Feature","geometry":{"type":"Point","coordinates":[106.42894,17.68237]},"properties":{"name":"Bắc Trạch","nameEn":"Bac Trach","fullName":"Xã Bắc Trạch","fullNameEn":"Bac Trach Commune","codeName":"bac_trach","areaKm2":97.61,"postalCode":"47212","code":"19126"}},{"type":"Feature","geometry":{"type":"Point","coordinates":[106.27981,17.65631]},"properties":{"name":"Phong Nha","nameEn":"Phong Nha","fullName":"Xã Phong Nha","fullNameEn":"Phong Nha Commune","codeName":"phong_nha","areaKm2":358.1,"postalCode":"47232","code":"19138"}},{"type":"Feature","geometry":{"type":"Point","coordinates":[106.38848,17.5728]},"properties":{"name":"Bố Trạch","nameEn":"Bo Trach","fullName":"Xã Bố Trạch","fullNameEn":"Bo Trach Commune","codeName":"bo_trach","areaKm2":299.42,"postalCode":"47237","code":"19141"}},{"type":"Feature","geometry":{"type":"Point","coordinates":[106.16988,17.4225]},"properties":{"name":"Thượng Trạch","nameEn":"Thuong Trach","fullName":"Xã Thượng Trạch","fullNameEn":"Thuong Trach Commune","codeName":"thuong_trach","areaKm2":1095.78,"postalCode":"47230","code":"19147"}},{"type":"Feature","geometry":{"type":"Point","coordinates":[106.50997,17.63728]},"properties":{"name":"Đông Trạch","nameEn":"Dong Trach","fullName":"Xã Đông Trạch","fullNameEn":"Dong Trach Commune","codeName":"dong_trach","areaKm2":35.72,"postalCode":"47236","code":"19159"}},{"type":"Feature","geometry":{"type":"Point","coordinates":[106.49956,17.485]},"properties":{"name":"Nam Trạch","nameEn":"Nam Trach","fullName":"Xã Nam Trạch","fullNameEn":"Nam Trach Commune","codeName":"nam_trach","areaKm2":129.83,"postalCode":"47238","code":"19198"}},{"type":"Feature","geometry":{"type":"Point","coordinates":[106.4576,17.25391]},"properties":{"name":"Trường Sơn","nameEn":"Truong Son","fullName":"Xã Trường Sơn","fullNameEn":"Truong Son Commune","codeName":"truong_son","areaKm2":935.96,"postalCode":"47720","code":"19204"}},{"type":"Feature","geometry":{"type":"Point","coordinates":[106.61537,17.3871]},"properties":{"name":"Quảng Ninh","nameEn":"Quang Ninh","fullName":"Xã Quảng Ninh","fullNameEn":"Quang Ninh Commune","codeName":"quang_ninh","areaKm2":100.27,"postalCode":"47721","code":"19207"}},{"type":"Feature","geometry":{"type":"Point","coordinates":[106.70886,17.34685]},"properties":{"name":"Ninh Châu","nameEn":"Ninh Chau","fullName":"Xã Ninh Châu","fullNameEn":"Ninh Chau Commune","codeName":"ninh_chau","areaKm2":86.03,"postalCode":"47722","code":"19225"}},{"type":"Feature","geometry":{"type":"Point","coordinates":[106.65883,17.29824]},"properties":{"name":"Trường Ninh","nameEn":"Truong Ninh","fullName":"Xã Trường Ninh","fullNameEn":"Truong Ninh Commune","codeName":"truong_ninh","areaKm2":71.92,"postalCode":"47723","code":"19237"}},{"type":"Feature","geometry":{"type":"Point","coordinates":[106.69717,17.23745]},"properties":{"name":"Lệ Ninh","nameEn":"Le Ninh","fullName":"Xã Lệ Ninh","fullNameEn":"Le Ninh Commune","codeName":"le_ninh","areaKm2":56.32,"postalCode":"47839","code":"19246"}},{"type":"Feature","geometry":{"type":"Point","coordinates":[106.76707,17.23411]},"properties":{"name":"Lệ Thuỷ","nameEn":"Le Thuy","fullName":"Xã Lệ Thuỷ","fullNameEn":"Le Thuy Commune","codeName":"le_thuy","areaKm2":55.93,"postalCode":"47834","code":"19249"}},{"type":"Feature","geometry":{"type":"Point","coordinates":[106.79939,17.2736]},"properties":{"name":"Cam Hồng","nameEn":"Cam Hong","fullName":"Xã Cam Hồng","fullNameEn":"Cam Hong Commune","codeName":"cam_hong","areaKm2":87.89,"postalCode":"47835","code":"19255"}},{"type":"Feature","geometry":{"type":"Point","coordinates":[106.92081,17.17224]},"properties":{"name":"Sen Ngư","nameEn":"Sen Ngu","fullName":"Xã Sen Ngư","fullNameEn":"Sen Ngu Commune","codeName":"sen_ngu","areaKm2":120.84,"postalCode":"47836","code":"19288"}},{"type":"Feature","geometry":{"type":"Point","coordinates":[106.85081,17.16431]},"properties":{"name":"Tân Mỹ","nameEn":"Tan My","fullName":"Xã Tân Mỹ","fullNameEn":"Tan My Commune","codeName":"tan_my","areaKm2":102.57,"postalCode":"47837","code":"19291"}},{"type":"Feature","geometry":{"type":"Point","coordinates":[106.76542,17.17286]},"properties":{"name":"Trường Phú","nameEn":"Truong Phu","fullName":"Xã Trường Phú","fullNameEn":"Truong Phu Commune","codeName":"truong_phu","areaKm2":97.18,"postalCode":"47838","code":"19309"}},{"type":"Feature","geometry":{"type":"Point","coordinates":[106.64569,17.06226]},"properties":{"name":"Kim Ngân","nameEn":"Kim Ngan","fullName":"Xã Kim Ngân","fullNameEn":"Kim Ngan Commune","codeName":"kim_ngan","areaKm2":881.06,"postalCode":"47840","code":"19318"}},{"type":"Feature","geometry":{"type":"Point","coordinates":[107.0704,16.80422]},"properties":{"name":"Đông Hà","nameEn":"Dong Ha","fullName":"Phường Đông Hà","fullNameEn":"Dong Ha Ward","codeName":"dong_ha","areaKm2":38.05,"postalCode":"48115","code":"19333"}},{"type":"Feature","geometry":{"type":"Point","coordinates":[107.10855,16.79821]},"properties":{"name":"Nam Đông Hà","nameEn":"Nam Dong Ha","fullName":"Phường Nam Đông Hà","fullNameEn":"Nam Dong Ha Ward","codeName":"nam_dong_ha","areaKm2":35.04,"postalCode":"48116","code":"19351"}},{"type":"Feature","geometry":{"type":"Point","coordinates":[107.14546,16.67398]},"properties":{"name":"Quảng Trị","nameEn":"Quang Tri","fullName":"Phường Quảng Trị","fullNameEn":"Quang Tri Ward","codeName":"quang_tri","areaKm2":72.82,"postalCode":"48811","code":"19360"}},{"type":"Feature","geometry":{"type":"Point","coordinates":[106.95589,17.08104]},"properties":{"name":"Vĩnh Linh","nameEn":"Vinh Linh","fullName":"Xã Vĩnh Linh","fullNameEn":"Vinh Linh Commune","codeName":"vinh_linh","areaKm2":90.37,"postalCode":"48428","code":"19363"}},{"type":"Feature","geometry":{"type":"Point","coordinates":[106.84789,16.96284]},"properties":{"name":"Bến Quan","nameEn":"Ben Quan","fullName":"Xã Bến Quan","fullNameEn":"Ben Quan Commune","codeName":"ben_quan","areaKm2":278.99,"postalCode":"48423","code":"19366"}},{"type":"Feature","geometry":{"type":"Point","coordinates":[107.03078,17.10323]},"properties":{"name":"Vĩnh Hoàng","nameEn":"Vinh Hoang","fullName":"Xã Vĩnh Hoàng","fullNameEn":"Vinh Hoang Commune","codeName":"vinh_hoang","areaKm2":87.06,"postalCode":"48429","code":"19372"}},{"type":"Feature","geometry":{"type":"Point","coordinates":[106.98166,17.0055]},"properties":{"name":"Vĩnh Thuỷ","nameEn":"Vinh Thuy","fullName":"Xã Vĩnh Thuỷ","fullNameEn":"Vinh Thuy Commune","codeName":"vinh_thuy","areaKm2":103.74,"postalCode":"48424","code":"19405"}},{"type":"Feature","geometry":{"type":"Point","coordinates":[107.08586,17.03961]},"properties":{"name":"Cửa Tùng","nameEn":"Cua Tung","fullName":"Xã Cửa Tùng","fullNameEn":"Cua Tung Commune","codeName":"cua_tung","areaKm2":59.83,"postalCode":"48419","code":"19414"}},{"type":"Feature","geometry":{"type":"Point","coordinates":[106.75132,16.64658]},"properties":{"name":"Khe Sanh","nameEn":"Khe Sanh","fullName":"Xã Khe Sanh","fullNameEn":"Khe Sanh Commune","codeName":"khe_sanh","areaKm2":134.81,"postalCode":"48506","code":"19429"}},{"type":"Feature","geometry":{"type":"Point","coordinates":[106.63697,16.63249]},"properties":{"name":"Lao Bảo","nameEn":"Lao Bao","fullName":"Xã Lao Bảo","fullNameEn":"Lao Bao Commune","codeName":"lao_bao","areaKm2":83.04,"postalCode":"48515","code":"19432"}},{"type":"Feature","geometry":{"type":"Point","coordinates":[106.59965,16.89454]},"properties":{"name":"Hướng Lập","nameEn":"Huong Lap","fullName":"Xã Hướng Lập","fullNameEn":"Huong Lap Commune","codeName":"huong_lap","areaKm2":219.64,"postalCode":"48510","code":"19435"}},{"type":"Feature","geometry":{"type":"Point","coordinates":[106.65757,16.76013]},"properties":{"name":"Hướng Phùng","nameEn":"Huong Phung","fullName":"Xã Hướng Phùng","fullNameEn":"Huong Phung Commune","codeName":"huong_phung","areaKm2":447.59,"postalCode":"48512","code":"19441"}},{"type":"Feature","geometry":{"type":"Point","coordinates":[106.71745,16.55739]},"properties":{"name":"Tân Lập","nameEn":"Tan Lap","fullName":"Xã Tân Lập","fullNameEn":"Tan Lap Commune","codeName":"tan_lap","areaKm2":83.18,"postalCode":"48517","code":"19462"}},{"type":"Feature","geometry":{"type":"Point","coordinates":[106.7711,16.50253]},"properties":{"name":"A Dơi","nameEn":"A Doi","fullName":"Xã A Dơi","fullNameEn":"A Doi Commune","codeName":"a_doi","areaKm2":112.41,"postalCode":"48526","code":"19483"}},{"type":"Feature","geometry":{"type":"Point","coordinates":[106.69569,16.48791]},"properties":{"name":"Lìa","nameEn":"Lia","fullName":"Xã Lìa","fullNameEn":"Lia Commune","codeName":"lia","areaKm2":71.69,"postalCode":"48523","code":"19489"}},{"type":"Feature","geometry":{"type":"Point","coordinates":[107.07878,16.9326]},"properties":{"name":"Gio Linh","nameEn":"Gio Linh","fullName":"Xã Gio Linh","fullNameEn":"Gio Linh Commune","codeName":"gio_linh","areaKm2":96.7,"postalCode":"48306","code":"19495"}},{"type":"Feature","geometry":{"type":"Point","coordinates":[107.144,16.90553]},"properties":{"name":"Cửa Việt","nameEn":"Cua Viet","fullName":"Xã Cửa Việt","fullNameEn":"Cua Viet Commune","codeName":"cua_viet","areaKm2":50.83,"postalCode":"48319","code":"19496"}},{"type":"Feature","geometry":{"type":"Point","coordinates":[107.01318,16.96276]},"properties":{"name":"Bến Hải","nameEn":"Ben Hai","fullName":"Xã Bến Hải","fullNameEn":"Ben Hai Commune","codeName":"ben_hai","areaKm2":54.77,"postalCode":"48328","code":"19501"}},{"type":"Feature","geometry":{"type":"Point","coordinates":[106.86132,16.86637]},"properties":{"name":"Cồn Tiên","nameEn":"Con Tien","fullName":"Xã Cồn Tiên","fullNameEn":"Con Tien Commune","codeName":"con_tien","areaKm2":268.58,"postalCode":"48327","code":"19537"}},{"type":"Feature","geometry":{"type":"Point","coordinates":[106.80567,16.77101]},"properties":{"name":"Hướng Hiệp","nameEn":"Huong Hiep","fullName":"Xã Hướng Hiệp","fullNameEn":"Huong Hiep Commune","codeName":"huong_hiep","areaKm2":185.61,"postalCode":"48607","code":"19555"}},{"type":"Feature","geometry":{"type":"Point","coordinates":[106.91637,16.55874]},"properties":{"name":"Đakrông","nameEn":"Dakrong","fullName":"Xã Đakrông","fullNameEn":"Dakrong Commune","codeName":"dakrong","areaKm2":359.29,"postalCode":"48608","code":"19564"}},{"type":"Feature","geometry":{"type":"Point","coordinates":[107.02262,16.6317]},"properties":{"name":"Ba Lòng","nameEn":"Ba Long","fullName":"Xã Ba Lòng","fullNameEn":"Ba Long Commune","codeName":"ba_long","areaKm2":210.58,"postalCode":"48612","code":"19567"}},{"type":"Feature","geometry":{"type":"Point","coordinates":[107.00835,16.45959]},"properties":{"name":"Tà Rụt","nameEn":"Ta Rut","fullName":"Xã Tà Rụt","fullNameEn":"Ta Rut Commune","codeName":"ta_rut","areaKm2":273.15,"postalCode":"48617","code":"19588"}},{"type":"Feature","geometry":{"type":"Point","coordinates":[107.00184,16.3475]},"properties":{"name":"La Lay","nameEn":"La Lay","fullName":"Xã La Lay","fullNameEn":"La Lay Commune","codeName":"la_lay","areaKm2":156.21,"postalCode":"48620","code":"19594"}},{"type":"Feature","geometry":{"type":"Point","coordinates":[106.95028,16.74955]},"properties":{"name":"Cam Lộ","nameEn":"Cam Lo","fullName":"Xã Cam Lộ","fullNameEn":"Cam Lo Commune","codeName":"cam_lo","areaKm2":166.85,"postalCode":"48206","code":"19597"}},{"type":"Feature","geometry":{"type":"Point","coordinates":[106.93619,16.83037]},"properties":{"name":"Hiếu Giang","nameEn":"Hieu Giang","fullName":"Xã Hiếu Giang","fullNameEn":"Hieu Giang Commune","codeName":"hieu_giang","areaKm2":177.36,"postalCode":"48215","code":"19603"}},{"type":"Feature","geometry":{"type":"Point","coordinates":[107.09881,16.6928]},"properties":{"name":"Triệu Phong","nameEn":"Trieu Phong","fullName":"Xã Triệu Phong","fullNameEn":"Trieu Phong Commune","codeName":"trieu_phong","areaKm2":80.79,"postalCode":"48725","code":"19624"}},{"type":"Feature","geometry":{"type":"Point","coordinates":[107.20223,16.86077]},"properties":{"name":"Nam Cửa Việt","nameEn":"Nam Cua Viet","fullName":"Xã Nam Cửa Việt","fullNameEn":"Nam Cua Viet Commune","codeName":"nam_cua_viet","areaKm2":74.12,"postalCode":"48728","code":"19639"}},{"type":"Feature","geometry":{"type":"Point","coordinates":[107.17309,16.82477]},"properties":{"name":"Triệu Bình","nameEn":"Trieu Binh","fullName":"Xã Triệu Bình","fullNameEn":"Trieu Binh Commune","codeName":"trieu_binh","areaKm2":37.2,"postalCode":"48727","code":"19645"}},{"type":"Feature","geometry":{"type":"Point","coordinates":[107.25328,16.79431]},"properties":{"name":"Triệu Cơ","nameEn":"Trieu Co","fullName":"Xã Triệu Cơ","fullNameEn":"Trieu Co Commune","codeName":"trieu_co","areaKm2":44.54,"postalCode":"48711","code":"19654"}},{"type":"Feature","geometry":{"type":"Point","coordinates":[107.09012,16.74419]},"properties":{"name":"Ái Tử","nameEn":"Ai Tu","fullName":"Xã Ái Tử","fullNameEn":"Ai Tu Commune","codeName":"ai_tu","areaKm2":116.74,"postalCode":"48726","code":"19669"}},{"type":"Feature","geometry":{"type":"Point","coordinates":[107.26555,16.66676]},"properties":{"name":"Diên Sanh","nameEn":"Dien Sanh","fullName":"Xã Diên Sanh","fullNameEn":"Dien Sanh Commune","codeName":"dien_sanh","areaKm2":87.97,"postalCode":"48906","code":"19681"}},{"type":"Feature","geometry":{"type":"Point","coordinates":[107.28481,16.76166]},"properties":{"name":"Vĩnh Định","nameEn":"Vinh Dinh","fullName":"Xã Vĩnh Định","fullNameEn":"Vinh Dinh Commune","codeName":"vinh_dinh","areaKm2":63.85,"postalCode":"48929","code":"19699"}},{"type":"Feature","geometry":{"type":"Point","coordinates":[107.21017,16.68146]},"properties":{"name":"Hải Lăng","nameEn":"Hai Lang","fullName":"Xã Hải Lăng","fullNameEn":"Hai Lang Commune","codeName":"hai_lang","areaKm2":116.89,"postalCode":"48927","code":"19702"}},{"type":"Feature","geometry":{"type":"Point","coordinates":[107.26671,16.60649]},"properties":{"name":"Nam Hải Lăng","nameEn":"Nam Hai Lang","fullName":"Xã Nam Hải Lăng","fullNameEn":"Nam Hai Lang Commune","codeName":"nam_hai_lang","areaKm2":114.84,"postalCode":"48928","code":"19735"}},{"type":"Feature","geometry":{"type":"Point","coordinates":[107.34636,16.73262]},"properties":{"name":"Mỹ Thuỷ","nameEn":"My Thuy","fullName":"Xã Mỹ Thuỷ","fullNameEn":"My Thuy Commune","codeName":"my_thuy","areaKm2":43.82,"postalCode":"48926","code":"19741"}},{"type":"Feature","geometry":{"type":"Point","coordinates":[107.33944,17.15878]},"properties":{"name":"Cồn Cỏ","nameEn":"Con Co","fullName":"Đặc khu Cồn Cỏ","fullNameEn":"Con Co Special administrative region","codeName":"con_co","areaKm2":2.3,"postalCode":"48956","code":"19742"}}]}